{"fetched_at":"2026-03-29T16:36:15Z","count":15609,"tles":[{"name":"STARLINK-5024","line1":"1 53901U 22119R   26088.16316587  .00957902  45603-3  18056-2 0  9999","line2":"2 53901  53.1969 143.3313 0009232  22.2346 337.9085 16.00237783195946","category":"Starlink"}]}